{"type": "FeatureCollection", "features": [ {"type": "Feature", "properties": {"norad_id": 66675, "name": "TRANSPORTER-15 K", "group": "last-30-days", "lat": -31.948867561521606, "lon": 71.06103266155488, "alt_km": 519.3938098615918, "timestamp": "2025-12-20T18:51:30.445847+00:00", "meta": {"OBJECT_NAME": "TRANSPORTER-15 K", "OBJECT_ID": "2025-276K", "EPOCH": "2025-12-20T01:35:09.671424", "MEAN_MOTION": 15.16956079, "ECCENTRICITY": 0.00049655, "INCLINATION": 97.4401, "RA_OF_ASC_NODE": 65.6801, "ARG_OF_PERICENTER": 271.4608, "MEAN_ANOMALY": 88.6057, "EPHEMERIS_TYPE": 0, "CLASSIFICATION_TYPE": "U", "NORAD_CAT_ID": 66675, "ELEMENT_SET_NO": 999, "REV_AT_EPOCH": 323, "BSTAR": 0.00040288595, "MEAN_MOTION_DOT": 7.889e-05, "MEAN_MOTION_DDOT": 0}, "tle": {"line1": "1 66675U 25276K   25354.06608416  .00007889  00000+0  40289-3 0  9999", "line2": "2 66675  97.4401  65.6801 0004965 271.4608  88.6057 15.16956079  3236"}}, "geometry": {"type": "Point", "coordinates": [71.06103266155488, -31.948867561521606]}}, {"type": "Feature", "properties": {"norad_id": 66676, "name": "TRANSPORTER-15 L", "group": "last-30-days", "lat": -39.66914083047398, "lon": 72.60543622480907, "alt_km": 520.2016184859549, "timestamp": "2025-12-20T18:51:30.445857+00:00", "meta": {"OBJECT_NAME": "TRANSPORTER-15 L", "OBJECT_ID": "2025-276L", "EPOCH": "2025-12-20T03:12:05.609664", "MEAN_MOTION": 15.1676344, "ECCENTRICITY": 0.00047525, "INCLINATION": 97.4395, "RA_OF_ASC_NODE": 65.7443, "ARG_OF_PERICENTER": 269.117, "MEAN_ANOMALY": 90.9518, "EPHEMERIS_TYPE": 0, "CLASSIFICATION_TYPE": "U", "NORAD_CAT_ID": 66676, "ELEMENT_SET_NO": 999, "REV_AT_EPOCH": 324, "BSTAR": 0.0003334872, "MEAN_MOTION_DOT": 6.482e-05, "MEAN_MOTION_DDOT": 0}, "tle": {"line1": "1 66676U 25276L   25354.13339826  .00006482  00000+0  33349-3 0  9991", "line2": "2 66676  97.4395  65.7443 0004752 269.1170  90.9518 15.16763440  3241"}}, "geometry": {"type": "Point", "coordinates": [72.60543622480907, -39.66914083047398]}}, {"type": "Feature", "properties": {"norad_id": 66677, "name": "TRANSPORTER-15 M", "group": "last-30-days", "lat": -2.4353154907440966, "lon": 66.71536008894749, "alt_km": 516.7503052956672, "timestamp": "2025-12-20T18:51:30.445868+00:00", "meta": {"OBJECT_NAME": "TRANSPORTER-15 M", "OBJECT_ID": "2025-276M", "EPOCH": "2025-12-20T14:07:16.779360", "MEAN_MOTION": 15.17416847, "ECCENTRICITY": 0.00037854, "INCLINATION": 97.4394, "RA_OF_ASC_NODE": 66.2031, "ARG_OF_PERICENTER": 274.6798, "MEAN_ANOMALY": 85.4004, "EPHEMERIS_TYPE": 0, "CLASSIFICATION_TYPE": "U", "NORAD_CAT_ID": 66677, "ELEMENT_SET_NO": 999, "REV_AT_EPOCH": 331, "BSTAR": 0.00042815032, "MEAN_MOTION_DOT": 8.499e-05, "MEAN_MOTION_DDOT": 0}, "tle": {"line1": "1 66677U 25276M   25354.58838865  .00008499  00000+0  42815-3 0  9996", "line2": "2 66677  97.4394  66.2031 0003785 274.6798  85.4004 15.17416847  3316"}}, "geometry": {"type": "Point", "coordinates": [66.71536008894749, -2.4353154907440966]}}, {"type": "Feature", "properties": {"norad_id": 66678, "name": "TRANSPORTER-15 N", "group": "last-30-days", "lat": -36.6006576595714, "lon": 71.96589500736546, "alt_km": 520.412945682895, "timestamp": "2025-12-20T18:51:30.445879+00:00", "meta": {"OBJECT_NAME": "TRANSPORTER-15 N", "OBJECT_ID": "2025-276N", "EPOCH": "2025-12-20T06:21:18.021024", "MEAN_MOTION": 15.16821752, "ECCENTRICITY": 0.00047543, "INCLINATION": 97.4435, "RA_OF_ASC_NODE": 65.8823, "ARG_OF_PERICENTER": 260.7711, "MEAN_ANOMALY": 99.2984, "EPHEMERIS_TYPE": 0, "CLASSIFICATION_TYPE": "U", "NORAD_CAT_ID": 66678, "ELEMENT_SET_NO": 999, "REV_AT_EPOCH": 326, "BSTAR": 0.0003909532, "MEAN_MOTION_DOT": 7.624e-05, "MEAN_MOTION_DDOT": 0}, "tle": {"line1": "1 66678U 25276N   25354.26479191  .00007624  00000+0  39095-3 0  9990", "line2": "2 66678  97.4435  65.8823 0004754 260.7711  99.2984 15.16821752  3263"}}, "geometry": {"type": "Point", "coordinates": [71.96589500736546, -36.6006576595714]}}, {"type": "Feature", "properties": {"norad_id": 66679, "name": "TRANSPORTER-15 P", "group": "last-30-days", "lat": -42.29515649060254, "lon": 73.20164079657171, "alt_km": 520.5215348055917, "timestamp": "2025-12-20T18:51:30.445888+00:00", "meta": {"OBJECT_NAME": "TRANSPORTER-15 P", "OBJECT_ID": "2025-276P", "EPOCH": "2025-12-20T06:22:44.953248", "MEAN_MOTION": 15.16670324, "ECCENTRICITY": 0.00045818, "INCLINATION": 97.4373, "RA_OF_ASC_NODE": 65.8663, "ARG_OF_PERICENTER": 269.5888, "MEAN_ANOMALY": 90.482, "EPHEMERIS_TYPE": 0, "CLASSIFICATION_TYPE": "U", "NORAD_CAT_ID": 66679, "ELEMENT_SET_NO": 999, "REV_AT_EPOCH": 326, "BSTAR": 0.00029516524, "MEAN_MOTION_DOT": 5.713e-05, "MEAN_MOTION_DDOT": 0}, "tle": {"line1": "1 66679U 25276P   25354.26579807  .00005713  00000+0  29517-3 0  9991", "line2": "2 66679  97.4373  65.8663 0004581 269.5888  90.4820 15.16670324  3266"}}, "geometry": {"type": "Point", "coordinates": [73.20164079657171, -42.29515649060254]}}, {"type": "Feature", "properties": {"norad_id": 66680, "name": "TRANSPORTER-15 Q", "group": "last-30-days", "lat": -35.43460799920617, "lon": 71.72834946327308, "alt_km": 520.6598491692948, "timestamp": "2025-12-20T18:51:30.445898+00:00", "meta": {"OBJECT_NAME": "TRANSPORTER-15 Q", "OBJECT_ID": "2025-276Q", "EPOCH": "2025-12-20T11:05:58.132032", "MEAN_MOTION": 15.16801989, "ECCENTRICITY": 0.0004618, "INCLINATION": 97.4424, "RA_OF_ASC_NODE": 66.0738, "ARG_OF_PERICENTER": 257.4075, "MEAN_ANOMALY": 102.6642, "EPHEMERIS_TYPE": 0, "CLASSIFICATION_TYPE": "U", "NORAD_CAT_ID": 66680, "ELEMENT_SET_NO": 999, "REV_AT_EPOCH": 329, "BSTAR": 0.00033464694, "MEAN_MOTION_DOT": 6.512e-05, "MEAN_MOTION_DDOT": 0}, "tle": {"line1": "1 66680U 25276Q   25354.46247838  .00006512  00000+0  33465-3 0  9996", "line2": "2 66680  97.4424  66.0738 0004618 257.4075 102.6642 15.16801989  3290"}}, "geometry": {"type": "Point", "coordinates": [71.72834946327308, -35.43460799920617]}}, {"type": "Feature", "properties": {"norad_id": 66681, "name": "TRANSPORTER-15 R", "group": "last-30-days", "lat": -12.480296770908442, "lon": 68.03645437322412, "alt_km": 516.820256111032, "timestamp": "2025-12-20T18:51:30.445908+00:00", "meta": {"OBJECT_NAME": "TRANSPORTER-15 R", "OBJECT_ID": "2025-276R", "EPOCH": "2025-12-20T14:09:56.462976", "MEAN_MOTION": 15.17361541, "ECCENTRICITY": 0.00048811, "INCLINATION": 97.4344, "RA_OF_ASC_NODE": 66.1884, "ARG_OF_PERICENTER": 285.4187, "MEAN_ANOMALY": 74.6507, "EPHEMERIS_TYPE": 0, "CLASSIFICATION_TYPE": "U", "NORAD_CAT_ID": 66681, "ELEMENT_SET_NO": 999, "REV_AT_EPOCH": 331, "BSTAR": 0.00052852789, "MEAN_MOTION_DOT": 0.00010495, "MEAN_MOTION_DDOT": 0}, "tle": {"line1": "1 66681U 25276R   25354.59023684  .00010495  00000+0  52853-3 0  9999", "line2": "2 66681  97.4344  66.1884 0004881 285.4187  74.6507 15.17361541  3319"}}, "geometry": {"type": "Point", "coordinates": [68.03645437322412, -12.480296770908442]}}, {"type": "Feature", "properties": {"norad_id": 66682, "name": "TRANSPORTER-15 S", "group": "last-30-days", "lat": -22.625254770368258, "lon": 69.53325230014796, "alt_km": 520.0360415233763, "timestamp": "2025-12-20T18:51:30.445918+00:00", "meta": {"OBJECT_NAME": "TRANSPORTER-15 S", "OBJECT_ID": "2025-276S", "EPOCH": "2025-12-20T03:07:44.488992", "MEAN_MOTION": 15.17084078, "ECCENTRICITY": 0.00047396, "INCLINATION": 97.4468, "RA_OF_ASC_NODE": 65.7643, "ARG_OF_PERICENTER": 251.0315, "MEAN_ANOMALY": 109.0405, "EPHEMERIS_TYPE": 0, "CLASSIFICATION_TYPE": "U", "NORAD_CAT_ID": 66682, "ELEMENT_SET_NO": 999, "REV_AT_EPOCH": 324, "BSTAR": 0.00037091705, "MEAN_MOTION_DOT": 7.284e-05, "MEAN_MOTION_DDOT": 0}, "tle": {"line1": "1 66682U 25276S   25354.13037603  .00007284  00000+0  37092-3 0  9996", "line2": "2 66682  97.4468  65.7643 0004739 251.0315 109.0405 15.17084078  3248"}}, "geometry": {"type": "Point", "coordinates": [69.53325230014796, -22.625254770368258]}}, {"type": "Feature", "properties": {"norad_id": 66683, "name": "TRANSPORTER-15 T", "group": "last-30-days", "lat": -26.257407767550305, "lon": 70.10462517218043, "alt_km": 520.3082165879123, "timestamp": "2025-12-20T18:51:30.445927+00:00", "meta": {"OBJECT_NAME": "TRANSPORTER-15 T", "OBJECT_ID": "2025-276T", "EPOCH": "2025-12-20T04:43:37.659360", "MEAN_MOTION": 15.16976032, "ECCENTRICITY": 0.00046117, "INCLINATION": 97.4462, "RA_OF_ASC_NODE": 65.827, "ARG_OF_PERICENTER": 253.4472, "MEAN_ANOMALY": 106.6255, "EPHEMERIS_TYPE": 0, "CLASSIFICATION_TYPE": "U", "NORAD_CAT_ID": 66683, "ELEMENT_SET_NO": 999, "REV_AT_EPOCH": 325, "BSTAR": 0.00024112286, "MEAN_MOTION_DOT": 4.696e-05, "MEAN_MOTION_DDOT": 0}, "tle": {"line1": "1 66683U 25276T   25354.19696365  .00004696  00000+0  24112-3 0  9992", "line2": "2 66683  97.4462  65.8270 0004611 253.4472 106.6255 15.16976032  3255"}}, "geometry": {"type": "Point", "coordinates": [70.10462517218043, -26.257407767550305]}}, {"type": "Feature", "properties": {"norad_id": 66684, "name": "TRANSPORTER-15 U", "group": "last-30-days", "lat": -11.405864218429556, "lon": 67.93053765234782, "alt_km": 518.9862495406942, "timestamp": "2025-12-20T18:51:30.445941+00:00", "meta": {"OBJECT_NAME": "TRANSPORTER-15 U", "OBJECT_ID": "2025-276U", "EPOCH": "2025-12-20T14:09:38.272320", "MEAN_MOTION": 15.1725938, "ECCENTRICITY": 0.00043384, "INCLINATION": 97.448, "RA_OF_ASC_NODE": 66.2258, "ARG_OF_PERICENTER": 251.046, "MEAN_ANOMALY": 109.0304, "EPHEMERIS_TYPE": 0, "CLASSIFICATION_TYPE": "U", "NORAD_CAT_ID": 66684, "ELEMENT_SET_NO": 999, "REV_AT_EPOCH": 331, "BSTAR": 0.00041566072, "MEAN_MOTION_DOT": 8.212e-05, "MEAN_MOTION_DDOT": 0}, "tle": {"line1": "1 66684U 25276U   25354.59002630  .00008212  00000+0  41566-3 0  9993", "line2": "2 66684  97.4480  66.2258 0004338 251.0460 109.0304 15.17259380  3314"}}, "geometry": {"type": "Point", "coordinates": [67.93053765234782, -11.405864218429556]}}]}